ONEWEB-0589             
1 54655U 22166P   24244.87687292  .00000034  00000+0  50067-4 0  9995
2 54655  87.9341  14.2542 0001943  69.2578 290.8764 13.21825664 85570
ONEWEB-0590             
1 54656U 22166Q   24244.90053273  .00000024  00000+0  27336-4 0  9998
2 54656  87.9344  14.2593 0002006  97.3915 262.7447 13.21825035 85093
ONEWEB-0591             
1 54657U 22166R   24245.06452386  .00000082  00000+0  16796-3 0  9996
2 54657  87.9340  14.2197 0001842  92.8825 267.2519 13.21823577 85603
ONEWEB-0592             
1 54658U 22166S   24245.06768903  .00000093  00000+0  19317-3 0  9996
2 54658  87.9336  14.1819 0001898  92.5524 267.5827 13.21827523 85490
ONEWEB-0593             
1 54659U 22166T   24244.86423706  .00000071  00000+0  13938-3 0  9992
2 54659  87.9340  14.2501 0001825  91.1854 268.9489 13.21827868 85105
ONEWEB-0594             
1 54660U 22166U   24245.41306029  .00000063  00000+0  12018-3 0  9993
2 54660  87.9343  14.1437 0001723  99.0966 261.0363 13.21825269 85653
ONEWEB-0595             
1 54661U 22166V   24244.86110366  .00000098  00000+0  20541-3 0  9997
2 54661  87.9342  14.2389 0001961 103.4003 256.7350 13.21824434 85094
ONEWEB-0596             
1 54662U 22166W   24245.13705774  .00000014  00000+0  31498-5 0  9995
2 54662  87.9343  14.1911 0001978  90.4454 269.6906 13.21828635 85603
